FENGYUN 4C              
1 67246U 25312A   26023.75400459 -.00000305  00000+0  00000+0 0  9992
2 67246   0.0527 242.7436 0003126  55.5521 229.1802  1.00295795   332
CZ-3B R/B               
1 67247U 25312B   26023.05789650  .00399796  90953-6  89821-3 0  9998
2 67247  28.3842 323.3203 7178118 196.8828 113.4294  2.47897554   663
2025-313A               
1 67248U 25313A   26023.59928753  .00002609  00000+0  26331-3 0  9996
2 67248  97.5615  99.1247 0280501  81.2852 282.0014 14.66834486  3826
2025-313B               
1 67249U 25313B   26023.62350342  .00004973  00000+0  38031-3 0  9990
2 67249  97.5300  99.2820 0297575  85.1027 278.4084 14.73285555  3845
2025-313C               
1 67250U 25313C   26023.62708436  .00023568  00000+0  21766-2 0  9990
2 67250  97.6338 100.0675 0162068  94.6809 267.2936 14.85072378  3874
2025-313D               
1 67251U 25313D   26023.62107350  .00004679  00000+0  40708-3 0  9999
2 67251  97.5855 100.0483 0152384  87.2836 274.5813 14.88820463  3888
ZORKIY-2M-VPE           
1 67252U 25313E   26023.58782909  .00011972  00000+0  52838-3 0  9995
2 67252  97.4093 100.6566 0011615 129.0590 231.1682 15.21848694  3969
AIST-2T 1               
1 67253U 25313F   26023.64103308  .00074721  00000+0  71823-3 0  9999
2 67253  97.1010 101.0453 0010505 145.0425 215.1528 15.66281081  4061
AIST-2T 2               
1 67254U 25313G   26022.87823468  .00034568  00000+0  35588-3 0  9993
2 67254  97.1008 100.2655 0008856 169.2638 190.8813 15.64735275  3932
2025-313H               
1 67255U 25313H   26023.58910666  .00003740  00000+0  26326-3 0  9998
2 67255  97.3067  99.5811 0091527 107.2848 253.8418 15.02235364  3911
SITRO-AIS-57            
1 67256U 25313J   26023.55221858  .00016910  00000+0  78093-3 0  9995
2 67256  97.4083 100.5464 0017445 146.5718 213.6622 15.20135232  3955
SITRO-AIS-59            
1 67257U 25313K   26023.55169330  .00016243  00000+0  75017-3 0  9994
2 67257  97.4090 100.5492 0017195 148.5881 211.6385 15.20144733  3950
