CCSDS_OMM_VERS = 2.0
CREATION_DATE  = 
ORIGINATOR     = 

OBJECT_NAME    = FENGYUN 4C
OBJECT_ID      = 2025-312A
CENTER_NAME    = EARTH
REF_FRAME      = TEME
TIME_SYSTEM    = UTC
MEAN_ELEMENT_THEORY = SGP/SGP4

EPOCH          = 2026-01-23T18:05:45.996576
MEAN_MOTION    = 1.00295795
ECCENTRICITY   = .0003126
INCLINATION    = 0.0527
RA_OF_ASC_NODE = 242.7436
ARG_OF_PERICENTER = 55.5521
MEAN_ANOMALY   = 229.1802

EPHEMERIS_TYPE = 0
CLASSIFICATION_TYPE = U
NORAD_CAT_ID   = 67246
ELEMENT_SET_NO = 999
REV_AT_EPOCH   = 33
BSTAR          = 0
MEAN_MOTION_DOT = -.305E-5
MEAN_MOTION_DDOT = 0

CCSDS_OMM_VERS = 2.0
CREATION_DATE  = 
ORIGINATOR     = 

OBJECT_NAME    = CZ-3B R/B
OBJECT_ID      = 2025-312B
CENTER_NAME    = EARTH
REF_FRAME      = TEME
TIME_SYSTEM    = UTC
MEAN_ELEMENT_THEORY = SGP/SGP4

EPOCH          = 2026-01-23T01:23:22.257600
MEAN_MOTION    = 2.47897554
ECCENTRICITY   = .71781182
INCLINATION    = 28.3842
RA_OF_ASC_NODE = 323.3203
ARG_OF_PERICENTER = 196.8828
MEAN_ANOMALY   = 113.4294

EPHEMERIS_TYPE = 0
CLASSIFICATION_TYPE = U
NORAD_CAT_ID   = 67247
ELEMENT_SET_NO = 999
REV_AT_EPOCH   = 66
BSTAR          = .89821438E-3
MEAN_MOTION_DOT = .399796E-2
MEAN_MOTION_DDOT = .909526E-6

CCSDS_OMM_VERS = 2.0
CREATION_DATE  = 
ORIGINATOR     = 

OBJECT_NAME    = 2025-313A
OBJECT_ID      = 2025-313A
CENTER_NAME    = EARTH
REF_FRAME      = TEME
TIME_SYSTEM    = UTC
MEAN_ELEMENT_THEORY = SGP/SGP4

EPOCH          = 2026-01-23T14:22:58.442592
MEAN_MOTION    = 14.66834486
ECCENTRICITY   = .02805018
INCLINATION    = 97.5615
RA_OF_ASC_NODE = 99.1247
ARG_OF_PERICENTER = 81.2852
MEAN_ANOMALY   = 282.0014

EPHEMERIS_TYPE = 0
CLASSIFICATION_TYPE = U
NORAD_CAT_ID   = 67248
ELEMENT_SET_NO = 999
REV_AT_EPOCH   = 382
BSTAR          = .2633099E-3
MEAN_MOTION_DOT = .2609E-4
MEAN_MOTION_DDOT = 0

CCSDS_OMM_VERS = 2.0
CREATION_DATE  = 
ORIGINATOR     = 

OBJECT_NAME    = 2025-313B
OBJECT_ID      = 2025-313B
CENTER_NAME    = EARTH
REF_FRAME      = TEME
TIME_SYSTEM    = UTC
MEAN_ELEMENT_THEORY = SGP/SGP4

EPOCH          = 2026-01-23T14:57:50.695488
MEAN_MOTION    = 14.73285555
ECCENTRICITY   = .0297575
INCLINATION    = 97.5300
RA_OF_ASC_NODE = 99.2820
ARG_OF_PERICENTER = 85.1027
MEAN_ANOMALY   = 278.4084

EPHEMERIS_TYPE = 0
CLASSIFICATION_TYPE = U
NORAD_CAT_ID   = 67249
ELEMENT_SET_NO = 999
REV_AT_EPOCH   = 384
BSTAR          = .38030946E-3
MEAN_MOTION_DOT = .4973E-4
MEAN_MOTION_DDOT = 0

CCSDS_OMM_VERS = 2.0
CREATION_DATE  = 
ORIGINATOR     = 

OBJECT_NAME    = 2025-313C
OBJECT_ID      = 2025-313C
CENTER_NAME    = EARTH
REF_FRAME      = TEME
TIME_SYSTEM    = UTC
MEAN_ELEMENT_THEORY = SGP/SGP4

EPOCH          = 2026-01-23T15:03:00.088704
MEAN_MOTION    = 14.85072378
ECCENTRICITY   = .0162068
INCLINATION    = 97.6338
RA_OF_ASC_NODE = 100.0675
ARG_OF_PERICENTER = 94.6809
MEAN_ANOMALY   = 267.2936

EPHEMERIS_TYPE = 0
CLASSIFICATION_TYPE = U
NORAD_CAT_ID   = 67250
ELEMENT_SET_NO = 999
REV_AT_EPOCH   = 387
BSTAR          = .2176637E-2
MEAN_MOTION_DOT = .23568E-3
MEAN_MOTION_DDOT = 0

CCSDS_OMM_VERS = 2.0
CREATION_DATE  = 
ORIGINATOR     = 

OBJECT_NAME    = 2025-313D
OBJECT_ID      = 2025-313D
CENTER_NAME    = EARTH
REF_FRAME      = TEME
TIME_SYSTEM    = UTC
MEAN_ELEMENT_THEORY = SGP/SGP4

EPOCH          = 2026-01-23T14:54:20.750400
MEAN_MOTION    = 14.88820463
ECCENTRICITY   = .01523847
INCLINATION    = 97.5855
RA_OF_ASC_NODE = 100.0483
ARG_OF_PERICENTER = 87.2836
MEAN_ANOMALY   = 274.5813

EPHEMERIS_TYPE = 0
CLASSIFICATION_TYPE = U
NORAD_CAT_ID   = 67251
ELEMENT_SET_NO = 999
REV_AT_EPOCH   = 388
BSTAR          = .40707943E-3
MEAN_MOTION_DOT = .4679E-4
MEAN_MOTION_DDOT = 0

CCSDS_OMM_VERS = 2.0
CREATION_DATE  = 
ORIGINATOR     = 

OBJECT_NAME    = ZORKIY-2M-VPE
OBJECT_ID      = 2025-313E
CENTER_NAME    = EARTH
REF_FRAME      = TEME
TIME_SYSTEM    = UTC
MEAN_ELEMENT_THEORY = SGP/SGP4

EPOCH          = 2026-01-23T14:06:28.433376
MEAN_MOTION    = 15.21848694
ECCENTRICITY   = .00116151
INCLINATION    = 97.4093
RA_OF_ASC_NODE = 100.6566
ARG_OF_PERICENTER = 129.0590
MEAN_ANOMALY   = 231.1682

EPHEMERIS_TYPE = 0
CLASSIFICATION_TYPE = U
NORAD_CAT_ID   = 67252
ELEMENT_SET_NO = 999
REV_AT_EPOCH   = 396
BSTAR          = .52837711E-3
MEAN_MOTION_DOT = .11972E-3
MEAN_MOTION_DDOT = 0

CCSDS_OMM_VERS = 2.0
CREATION_DATE  = 
ORIGINATOR     = 

OBJECT_NAME    = AIST-2T 1
OBJECT_ID      = 2025-313F
CENTER_NAME    = EARTH
REF_FRAME      = TEME
TIME_SYSTEM    = UTC
MEAN_ELEMENT_THEORY = SGP/SGP4

EPOCH          = 2026-01-23T15:23:05.258112
MEAN_MOTION    = 15.66281081
ECCENTRICITY   = .00105052
INCLINATION    = 97.1010
RA_OF_ASC_NODE = 101.0453
ARG_OF_PERICENTER = 145.0425
MEAN_ANOMALY   = 215.1528

EPHEMERIS_TYPE = 0
CLASSIFICATION_TYPE = U
NORAD_CAT_ID   = 67253
ELEMENT_SET_NO = 999
REV_AT_EPOCH   = 406
BSTAR          = .71822744E-3
MEAN_MOTION_DOT = .74721E-3
MEAN_MOTION_DDOT = 0

CCSDS_OMM_VERS = 2.0
CREATION_DATE  = 
ORIGINATOR     = 

OBJECT_NAME    = AIST-2T 2
OBJECT_ID      = 2025-313G
CENTER_NAME    = EARTH
REF_FRAME      = TEME
TIME_SYSTEM    = UTC
MEAN_ELEMENT_THEORY = SGP/SGP4

EPOCH          = 2026-01-22T21:04:39.476352
MEAN_MOTION    = 15.64735275
ECCENTRICITY   = .00088561
INCLINATION    = 97.1008
RA_OF_ASC_NODE = 100.2655
ARG_OF_PERICENTER = 169.2638
MEAN_ANOMALY   = 190.8813

EPHEMERIS_TYPE = 0
CLASSIFICATION_TYPE = U
NORAD_CAT_ID   = 67254
ELEMENT_SET_NO = 999
REV_AT_EPOCH   = 393
BSTAR          = .35588288E-3
MEAN_MOTION_DOT = .34568E-3
MEAN_MOTION_DDOT = 0

CCSDS_OMM_VERS = 2.0
CREATION_DATE  = 
ORIGINATOR     = 

OBJECT_NAME    = 2025-313H
OBJECT_ID      = 2025-313H
CENTER_NAME    = EARTH
REF_FRAME      = TEME
TIME_SYSTEM    = UTC
MEAN_ELEMENT_THEORY = SGP/SGP4

EPOCH          = 2026-01-23T14:08:18.815424
MEAN_MOTION    = 15.02235364
ECCENTRICITY   = .00915274
INCLINATION    = 97.3067
RA_OF_ASC_NODE = 99.5811
ARG_OF_PERICENTER = 107.2848
MEAN_ANOMALY   = 253.8418

EPHEMERIS_TYPE = 0
CLASSIFICATION_TYPE = U
NORAD_CAT_ID   = 67255
ELEMENT_SET_NO = 999
REV_AT_EPOCH   = 391
BSTAR          = .26326151E-3
MEAN_MOTION_DOT = .374E-4
MEAN_MOTION_DDOT = 0

CCSDS_OMM_VERS = 2.0
CREATION_DATE  = 
ORIGINATOR     = 

OBJECT_NAME    = SITRO-AIS-57
OBJECT_ID      = 2025-313J
CENTER_NAME    = EARTH
REF_FRAME      = TEME
TIME_SYSTEM    = UTC
MEAN_ELEMENT_THEORY = SGP/SGP4

EPOCH          = 2026-01-23T13:15:11.685312
MEAN_MOTION    = 15.20135232
ECCENTRICITY   = .0017445
INCLINATION    = 97.4083
RA_OF_ASC_NODE = 100.5464
ARG_OF_PERICENTER = 146.5718
MEAN_ANOMALY   = 213.6622

EPHEMERIS_TYPE = 0
CLASSIFICATION_TYPE = U
NORAD_CAT_ID   = 67256
ELEMENT_SET_NO = 999
REV_AT_EPOCH   = 395
BSTAR          = .78092675E-3
MEAN_MOTION_DOT = .1691E-3
MEAN_MOTION_DDOT = 0

CCSDS_OMM_VERS = 2.0
CREATION_DATE  = 
ORIGINATOR     = 

OBJECT_NAME    = SITRO-AIS-59
OBJECT_ID      = 2025-313K
CENTER_NAME    = EARTH
REF_FRAME      = TEME
TIME_SYSTEM    = UTC
MEAN_ELEMENT_THEORY = SGP/SGP4

EPOCH          = 2026-01-23T13:14:26.301120
MEAN_MOTION    = 15.20144733
ECCENTRICITY   = .00171955
INCLINATION    = 97.4090
RA_OF_ASC_NODE = 100.5492
ARG_OF_PERICENTER = 148.5881
MEAN_ANOMALY   = 211.6385

EPHEMERIS_TYPE = 0
CLASSIFICATION_TYPE = U
NORAD_CAT_ID   = 67257
ELEMENT_SET_NO = 999
REV_AT_EPOCH   = 395
BSTAR          = .75017245E-3
MEAN_MOTION_DOT = .16243E-3
MEAN_MOTION_DDOT = 0

